{
    "links": {
        "self": "http://www.neowsapp.com/rest/v1/neo/54054656?api_key=iIulBulltgU6a56xZRHN4H3l9WmuAYTsLGpBGhQ2"
    },
    "id": "54054656",
    "neo_reference_id": "54054656",
    "name": "(2020 SF5)",
    "designation": "2020 SF5",
    "nasa_jpl_url": "http://ssd.jpl.nasa.gov/sbdb.cgi?sstr=54054656",
    "absolute_magnitude_h": 25.839,
    "estimated_diameter": {
        "kilometers": {
            "estimated_diameter_min": 0.0180615483,
            "estimated_diameter_max": 0.0403868498
        },
        "meters": {
            "estimated_diameter_min": 18.0615482904,
            "estimated_diameter_max": 40.3868497563
        },
        "miles": {
            "estimated_diameter_min": 0.0112229223,
            "estimated_diameter_max": 0.0250952172
        },
        "feet": {
            "estimated_diameter_min": 59.2570500931,
            "estimated_diameter_max": 132.5027921544
        }
    },
    "is_potentially_hazardous_asteroid": false,
    "close_approach_data": [
        {
            "close_approach_date": "2020-09-21",
            "close_approach_date_full": "2020-Sep-21 00:27",
            "epoch_date_close_approach": 1600648020000,
            "relative_velocity": {
                "kilometers_per_second": "7.4397069919",
                "kilometers_per_hour": "26782.9451708832",
                "miles_per_hour": "16641.880570208"
            },
            "miss_distance": {
                "astronomical": "0.0367989998",
                "lunar": "14.3148109222",
                "kilometers": "5505051.988210426",
                "miles": "3420680.6864028388"
            },
            "orbiting_body": "Earth"
        }
    ],
    "orbital_data": {
        "orbit_id": "1",
        "orbit_determination_date": "2020-09-26 05:12:04",
        "first_observation_date": "2020-09-24",
        "last_observation_date": "2020-09-26",
        "data_arc_in_days": 2,
        "observations_used": 14,
        "orbit_uncertainty": "9",
        "minimum_orbit_intersection": ".0268038",
        "jupiter_tisserand_invariant": "3.491",
        "epoch_osculation": "2459117.5",
        "eccentricity": ".5283947242567757",
        "semi_major_axis": "2.168220679889706",
        "inclination": "5.684285372380949",
        "ascending_node_longitude": "14.91406597193598",
        "orbital_period": "1166.147942313337",
        "perihelion_distance": "1.022544311611546",
        "perihelion_argument": "346.1802840197179",
        "aphelion_distance": "3.313897048167866",
        "perihelion_time": "2459115.273937798050",
        "mean_anomaly": ".6872047393165773",
        "mean_motion": ".3087086868976955",
        "equinox": "J2000",
        "orbit_class": {
            "orbit_class_type": "AMO",
            "orbit_class_description": "Near-Earth asteroid orbits similar to that of 1221 Amor",
            "orbit_class_range": "1.017 AU < q (perihelion) < 1.3 AU"
        }
    },
    "is_sentry_object": false
}